OBJECT_NAME,OBJECT_ID,EPOCH,MEAN_MOTION,ECCENTRICITY,INCLINATION,RA_OF_ASC_NODE,ARG_OF_PERICENTER,MEAN_ANOMALY,EPHEMERIS_TYPE,CLASSIFICATION_TYPE,NORAD_CAT_ID,ELEMENT_SET_NO,REV_AT_EPOCH,BSTAR,MEAN_MOTION_DOT,MEAN_MOTION_DDOT
JILIN-1 06,2017-074C,2026-06-16T07:26:09.041568,15.33684834,.00056353,97.4796,270.4626,234.4305,125.6413,0,U,43024,999,47370,.15747348E-3,.5049E-4,0
YAOGAN-30 03A,2017-075A,2026-06-16T06:49:36.880896,15.02822746,.00025099,34.9949,276.0388,293.2867,66.7577,0,U,43028,999,46711,.17581523E-3,.2374E-4,0
YAOGAN-30 03B,2017-075B,2026-06-16T06:35:45.953952,15.02695210,.00037883,34.9948,275.7944,240.3647,119.6684,0,U,43029,999,46722,.17576342E-3,.2365E-4,0
YAOGAN-30 03C,2017-075C,2026-06-16T06:05:12.929568,15.02659157,.00018659,34.9953,275.8932,26.5600,333.5203,0,U,43030,999,46728,.16125096E-3,.2165E-4,0
COSMOS 2524,2017-076A,2026-06-16T07:31:50.961792,13.97427075,.00051604,67.1442,194.6144,225.0684,134.9983,0,U,43032,999,43548,-.77305208E-4,-.184E-5,0
LKW-1,2017-077A,2026-06-16T07:27:44.883360,15.23817287,.00021092,97.0981,201.5914,108.9956,251.1510,0,U,43034,999,47456,.19898645E-3,.4727E-4,0
ALCOMSAT 1,2017-078A,2026-06-16T02:37:46.879104,1.00269414,.00022286,0.0351,265.8757,167.4024,205.7483,0,U,43039,999,3128,0,-.186E-5,0
GSAT0215 (GALILEO 19),2017-079A,2026-06-15T06:08:26.590848,1.70474552,.00030639,55.0739,221.5600,263.0342,97.0324,0,U,43055,999,5295,0,.56E-6,0
GSAT0216 (GALILEO 20),2017-079B,2026-06-13T18:53:40.298208,1.70474522,.00044684,55.0743,221.6004,275.6764,84.3739,0,U,43056,999,5294,0,.61E-6,0
GSAT0217 (GALILEO 21),2017-079C,2026-06-15T04:20:58.191648,1.70474278,.0004444,55.0707,221.5599,284.3881,75.6642,0,U,43057,999,5295,0,.56E-6,0
GSAT0218 (GALILEO 22),2017-079D,2026-06-13T01:19:09.756192,1.70474471,.00050247,55.0728,221.6159,272.4694,87.5720,0,U,43058,999,5294,0,.61E-6,0
GCOM-C (SHIKISAI),2017-082A,2026-06-16T03:59:47.434272,14.27267543,.00010989,98.6277,240.8230,93.3087,266.8219,0,U,43065,999,44179,.72631759E-4,.134E-5,0
IRIDIUM 135,2017-083A,2026-06-16T04:11:43.175328,14.34217533,.00020565,86.3960,322.4388,91.4541,268.6890,0,U,43070,999,44400,-.3074208E-5,.11E-6,0
IRIDIUM 138,2017-083B,2026-06-15T22:06:23.145408,14.34217207,.0002215,86.3973,322.2401,87.3565,272.7884,0,U,43071,999,44395,-.16001E-4,-.25E-6,0
IRIDIUM 116,2017-083C,2026-06-16T04:02:35.113344,14.34217849,.00019528,86.3962,322.4273,98.3378,261.8039,0,U,43072,999,44402,.3955896E-5,.31E-6,0
IRIDIUM 130,2017-083D,2026-06-16T03:16:55.030656,14.34218223,.00019579,86.3970,322.7158,91.9869,268.1551,0,U,43073,999,44396,.21129494E-4,.79E-6,0
IRIDIUM 151,2017-083E,2026-06-16T04:20:51.170784,14.34217652,.0002147,86.3965,322.4797,92.6761,267.4681,0,U,43074,999,44399,-.2069875E-5,.14E-6,0
IRIDIUM 134,2017-083F,2026-06-16T03:35:11.132160,14.34217593,.00019793,86.3962,322.5012,91.2056,268.9367,0,U,43075,999,44395,-.6443829E-5,.2E-7,0
IRIDIUM 137,2017-083G,2026-06-16T03:53:27.132576,14.34217947,.00022396,86.3967,322.5885,103.8656,256.2789,0,U,43076,999,44402,.6724996E-5,.39E-6,0
IRIDIUM 141,2017-083H,2026-06-15T22:42:55.128096,14.34217929,.00022005,86.3961,322.5093,90.8914,269.2534,0,U,43077,999,44399,.3817607E-5,.3E-6,0
IRIDIUM 153,2017-083J,2026-06-16T07:36:51.435072,14.34217618,.00021461,86.3956,290.8347,89.8219,270.3223,0,U,43078,999,44515,-.950196E-6,.17E-6,0
IRIDIUM 131,2017-083K,2026-06-15T20:44:10.960800,14.34219103,.00022171,86.3968,322.7297,92.0861,268.0589,0,U,43079,999,44391,.43115215E-4,.141E-5,0
LKW-2,2017-084A,2026-06-16T07:22:35.482368,15.26331060,.00009996,97.1187,207.1440,180.0939,180.0300,0,U,43080,999,47155,.21726796E-3,.5574E-4,0
YAOGAN-30 04A,2017-085A,2026-06-16T06:56:19.293216,15.02687503,.00044881,34.9943,155.5279,152.0027,208.0923,0,U,43081,999,46258,.14299534E-3,.1918E-4,0
YAOGAN-30 04B,2017-085B,2026-06-16T07:28:59.603808,15.02685983,.00049228,34.9931,155.4829,326.7903,33.2496,0,U,43082,999,46256,.14620339E-3,.1962E-4,0
YAOGAN-30 04C,2017-085C,2026-06-16T06:26:47.107392,15.02722678,.00044846,34.9934,156.1679,138.2065,221.8986,0,U,43083,999,46261,.13990436E-3,.1878E-4,0
SUPERVIEW-1 03,2018-002A,2026-06-16T06:08:07.256256,15.39227675,.0047103,97.3140,252.0941,182.8756,177.2227,0,U,43099,999,46822,.37327085E-3,.15017E-3,0
BEIDOU-3 M7,2018-003A,2026-06-16T06:38:18.055968,1.86228067,.00048732,54.3293,302.3474,93.9647,266.0776,0,U,43107,999,5733,0,-.71E-6,0
BEIDOU-3 M8,2018-003B,2026-06-15T16:25:34.422816,1.86230980,.00025966,54.3221,302.3497,261.7329,98.2226,0,U,43108,999,5733,0,-.71E-6,0
CARTOSAT-2F,2018-004A,2026-06-16T05:17:28.885344,15.19210431,.00005475,97.4791,226.8641,215.7817,144.3381,0,U,43111,999,46718,.19302275E-3,.3995E-4,0
