JILIN-1 06              
1 43024U 17074C   26167.30982687  .00005049  00000+0  15747-3 0  9991
2 43024  97.4796 270.4626 0005635 234.4305 125.6413 15.33684834473702
YAOGAN-30 03A           
1 43028U 17075A   26167.28445464  .00002374  00000+0  17582-3 0  9997
2 43028  34.9949 276.0388 0002509 293.2867  66.7577 15.02822746467118
YAOGAN-30 03B           
1 43029U 17075B   26167.27483743  .00002365  00000+0  17576-3 0  9992
2 43029  34.9948 275.7944 0003788 240.3647 119.6684 15.02695210467224
YAOGAN-30 03C           
1 43030U 17075C   26167.25362187  .00002165  00000+0  16125-3 0  9997
2 43030  34.9953 275.8932 0001865  26.5600 333.5203 15.02659157467287
COSMOS 2524             
1 43032U 17076A   26167.31378428 -.00000184  00000+0 -77305-4 0  9991
2 43032  67.1442 194.6144 0005160 225.0684 134.9983 13.97427075435482
LKW-1                   
1 43034U 17077A   26167.31093615  .00004727  00000+0  19899-3 0  9994
2 43034  97.0981 201.5914 0002109 108.9956 251.1510 15.23817287474567
ALCOMSAT 1              
1 43039U 17078A   26167.10957036 -.00000186  00000+0  00000+0 0  9999
2 43039   0.0351 265.8757 0002228 167.4024 205.7483  1.00269414 31288
GSAT0215 (GALILEO 19)   
1 43055U 17079A   26166.25586332  .00000056  00000+0  00000+0 0  9995
2 43055  55.0739 221.5600 0003063 263.0342  97.0324  1.70474552 52957
GSAT0216 (GALILEO 20)   
1 43056U 17079B   26164.78727197  .00000061  00000+0  00000+0 0  9994
2 43056  55.0743 221.6004 0004468 275.6764  84.3739  1.70474522 52944
GSAT0217 (GALILEO 21)   
1 43057U 17079C   26166.18122907  .00000056  00000+0  00000+0 0  9993
2 43057  55.0707 221.5599 0004444 284.3881  75.6642  1.70474278 52959
GSAT0218 (GALILEO 22)   
1 43058U 17079D   26164.05497403  .00000061  00000+0  00000+0 0  9990
2 43058  55.0728 221.6159 0005024 272.4694  87.5720  1.70474471 52944
GCOM-C (SHIKISAI)       
1 43065U 17082A   26167.16652123  .00000134  00000+0  72632-4 0  9995
2 43065  98.6277 240.8230 0001098  93.3087 266.8219 14.27267543441796
IRIDIUM 135             
1 43070U 17083A   26167.17480527  .00000011  00000+0 -30742-5 0  9992
2 43070  86.3960 322.4388 0002056  91.4541 268.6890 14.34217533444009
IRIDIUM 138             
1 43071U 17083B   26166.92110122 -.00000025  00000+0 -16001-4 0  9993
2 43071  86.3973 322.2401 0002215  87.3565 272.7884 14.34217207443955
IRIDIUM 116             
1 43072U 17083C   26167.16846196  .00000031  00000+0  39559-5 0  9997
2 43072  86.3962 322.4273 0001952  98.3378 261.8039 14.34217849444026
IRIDIUM 130             
1 43073U 17083D   26167.13674804  .00000079  00000+0  21129-4 0  9995
2 43073  86.3970 322.7158 0001957  91.9869 268.1551 14.34218223443968
IRIDIUM 151             
1 43074U 17083E   26167.18114781  .00000014  00000+0 -20699-5 0  9996
2 43074  86.3965 322.4797 0002147  92.6761 267.4681 14.34217652443994
IRIDIUM 134             
1 43075U 17083F   26167.14943440  .00000002  00000+0 -64438-5 0  9991
2 43075  86.3962 322.5012 0001979  91.2056 268.9367 14.34217593443954
IRIDIUM 137             
1 43076U 17083G   26167.16211959  .00000039  00000+0  67250-5 0  9991
2 43076  86.3967 322.5885 0002239 103.8656 256.2789 14.34217947444024
IRIDIUM 141             
1 43077U 17083H   26166.94647139  .00000030  00000+0  38176-5 0  9996
2 43077  86.3961 322.5093 0002200  90.8914 269.2534 14.34217929443997
IRIDIUM 153             
1 43078U 17083J   26167.31726198  .00000017  00000+0 -95020-6 0  9990
2 43078  86.3956 290.8347 0002146  89.8219 270.3223 14.34217618445159
IRIDIUM 131             
1 43079U 17083K   26166.86401575  .00000141  00000+0  43115-4 0  9992
2 43079  86.3968 322.7297 0002217  92.0861 268.0589 14.34219103443912
LKW-2                   
1 43080U 17084A   26167.30735512  .00005574  00000+0  21727-3 0  9995
2 43080  97.1187 207.1440 0000999 180.0939 180.0300 15.26331060471556
YAOGAN-30 04A           
1 43081U 17085A   26167.28911219  .00001918  00000+0  14300-3 0  9991
2 43081  34.9943 155.5279 0004488 152.0027 208.0923 15.02687503462581
YAOGAN-30 04B           
1 43082U 17085B   26167.31180097  .00001962  00000+0  14620-3 0  9992
2 43082  34.9931 155.4829 0004922 326.7903  33.2496 15.02685983462566
YAOGAN-30 04C           
1 43083U 17085C   26167.26860078  .00001878  00000+0  13990-3 0  9996
2 43083  34.9934 156.1679 0004484 138.2065 221.8986 15.02722678462617
SUPERVIEW-1 03          
1 43099U 18002A   26167.25563954  .00015017  00000+0  37327-3 0  9995
2 43099  97.3140 252.0941 0047103 182.8756 177.2227 15.39227675468223
BEIDOU-3 M7             
1 43107U 18003A   26167.27659787 -.00000071  00000+0  00000+0 0  9997
2 43107  54.3293 302.3474 0004873  93.9647 266.0776  1.86228067 57338
BEIDOU-3 M8             
1 43108U 18003B   26166.68442619 -.00000071  00000+0  00000+0 0  9996
2 43108  54.3221 302.3497 0002596 261.7329  98.2226  1.86230980 57339
CARTOSAT-2F             
1 43111U 18004A   26167.22047321  .00003995  00000+0  19302-3 0  9999
2 43111  97.4791 226.8641 0000547 215.7817 144.3381 15.19210431467182
